ONEWEB-0648             
1 55811U 23029R   26065.65784693  .00000145  00000+0  35611-3 0  9991
2 55811  87.8990 310.1604 0001874 113.5336 246.5991 13.14501384145927
ONEWEB-0649             
1 55812U 23029S   26065.65395838  .00000046  00000+0  83155-4 0  9998
2 55812  87.9234 325.4024 0001644  90.9166 269.2155 13.19725032145409
ONEWEB-0650             
1 55813U 23029T   26065.27013627  .00000065  00000+0  12927-3 0  9999
2 55813  87.9232 325.4817 0001907  92.7491 267.3860 13.19727550145321
ONEWEB-0652             
1 55814U 23029U   26065.63881551 -.00000071  00000+0 -22500-3 0  9996
2 55814  87.8987 310.1797 0001606  75.2662 284.8646 13.14501897145895
ONEWEB-0653             
1 55815U 23029V   26065.39460167 -.00000141  00000+0 -41463-3 0  9993
2 55815  87.8993 310.2192 0001449  77.9485 282.1807 13.14502209145898
ONEWEB-0654             
1 55816U 23029W   26065.23760782 -.00000137  00000+0 -40486-3 0  9992
2 55816  87.8986 310.2496 0001538  67.1017 293.0275 13.14502588145899
ONEWEB-0656             
1 55817U 23029X   26065.55363326 -.00000042  00000+0 -13577-3 0  9997
2 55817  87.9177 294.9211 0001468  68.5751 291.5539 13.20772016147607
ONEWEB-0657             
1 55818U 23029Y   26065.41704597  .00000073  00000+0  15012-3 0  9990
2 55818  87.9234 325.4514 0002219  66.0327 294.1038 13.19726140145353
ONEWEB-0658             
1 55819U 23029Z   26065.26067210  .00000051  00000+0  95770-4 0  9994
2 55819  87.9245 325.4491 0001961  90.7497 269.3861 13.19725634145349
ONEWEB-0660             
1 55820U 23029AA  26065.21541453  .00000166  00000+0  41290-3 0  9991
2 55820  87.8995 310.2407 0001450  96.6584 263.4711 13.14502958145870
ONEWEB-0661             
1 55821U 23029AB  26065.40252910 -.00000114  00000+0 -34155-3 0  9997
2 55821  87.8984 310.2597 0001335  89.7678 270.3605 13.14503288145885
ONEWEB-0662             
1 55822U 23029AC  26065.20906984  .00000257  00000+0  65873-3 0  9990
2 55822  87.8982 310.3062 0001461  92.9076 267.2221 13.14502443145904
ONEWEB-0663             
1 55823U 23029AD  26065.59495997  .00000074  00000+0  14988-3 0  9998
2 55823  87.9185 294.9853 0001630 100.6945 259.4372 13.20861772147605
ONEWEB-0664             
1 55824U 23029AE  26065.38948497 -.00000013  00000+0 -63162-4 0  9998
2 55824  87.9170 295.0185 0001066  90.2541 269.8714 13.20774851147571
ONEWEB-0665             
1 55825U 23029AF  26065.62771629 -.00000194  00000+0 -55741-3 0  9990
2 55825  87.8988 310.1953 0001539  92.5669 267.5637 13.14501749145935
ONEWEB-0666             
1 55826U 23029AG  26065.61045300 -.00000067  00000+0 -19708-3 0  9992
2 55826  87.9164 294.9651 0002072  66.0865 294.0485 13.20771580147616
