[{"OBJECT_NAME":"ONEWEB-0648","OBJECT_ID":"2023-029R","EPOCH":"2026-03-06T15:47:17.974752","MEAN_MOTION":13.14501384,"ECCENTRICITY":0.00018745,"INCLINATION":87.899,"RA_OF_ASC_NODE":310.1604,"ARG_OF_PERICENTER":113.5336,"MEAN_ANOMALY":246.5991,"EPHEMERIS_TYPE":0,"CLASSIFICATION_TYPE":"U","NORAD_CAT_ID":55811,"ELEMENT_SET_NO":999,"REV_AT_EPOCH":14592,"BSTAR":0.00035611233,"MEAN_MOTION_DOT":1.45e-6,"MEAN_MOTION_DDOT":0},{"OBJECT_NAME":"ONEWEB-0649","OBJECT_ID":"2023-029S","EPOCH":"2026-03-06T15:41:42.004032","MEAN_MOTION":13.19725032,"ECCENTRICITY":0.00016443,"INCLINATION":87.9234,"RA_OF_ASC_NODE":325.4024,"ARG_OF_PERICENTER":90.9166,"MEAN_ANOMALY":269.2155,"EPHEMERIS_TYPE":0,"CLASSIFICATION_TYPE":"U","NORAD_CAT_ID":55812,"ELEMENT_SET_NO":999,"REV_AT_EPOCH":14540,"BSTAR":8.3155332e-5,"MEAN_MOTION_DOT":4.6e-7,"MEAN_MOTION_DDOT":0},{"OBJECT_NAME":"ONEWEB-0650","OBJECT_ID":"2023-029T","EPOCH":"2026-03-06T06:28:59.773728","MEAN_MOTION":13.1972755,"ECCENTRICITY":0.00019077,"INCLINATION":87.9232,"RA_OF_ASC_NODE":325.4817,"ARG_OF_PERICENTER":92.7491,"MEAN_ANOMALY":267.386,"EPHEMERIS_TYPE":0,"CLASSIFICATION_TYPE":"U","NORAD_CAT_ID":55813,"ELEMENT_SET_NO":999,"REV_AT_EPOCH":14532,"BSTAR":0.00012926592,"MEAN_MOTION_DOT":6.5e-7,"MEAN_MOTION_DDOT":0},{"OBJECT_NAME":"ONEWEB-0652","OBJECT_ID":"2023-029U","EPOCH":"2026-03-06T15:19:53.660064","MEAN_MOTION":13.14501897,"ECCENTRICITY":0.00016063,"INCLINATION":87.8987,"RA_OF_ASC_NODE":310.1797,"ARG_OF_PERICENTER":75.2662,"MEAN_ANOMALY":284.8646,"EPHEMERIS_TYPE":0,"CLASSIFICATION_TYPE":"U","NORAD_CAT_ID":55814,"ELEMENT_SET_NO":999,"REV_AT_EPOCH":14589,"BSTAR":-0.00022500084,"MEAN_MOTION_DOT":-7.1e-7,"MEAN_MOTION_DDOT":0},{"OBJECT_NAME":"ONEWEB-0653","OBJECT_ID":"2023-029V","EPOCH":"2026-03-06T09:28:13.584288","MEAN_MOTION":13.14502209,"ECCENTRICITY":0.0001449,"INCLINATION":87.8993,"RA_OF_ASC_NODE":310.2192,"ARG_OF_PERICENTER":77.9485,"MEAN_ANOMALY":282.1807,"EPHEMERIS_TYPE":0,"CLASSIFICATION_TYPE":"U","NORAD_CAT_ID":55815,"ELEMENT_SET_NO":999,"REV_AT_EPOCH":14589,"BSTAR":-0.00041462707,"MEAN_MOTION_DOT":-1.41e-6,"MEAN_MOTION_DDOT":0},{"OBJECT_NAME":"ONEWEB-0654","OBJECT_ID":"2023-029W","EPOCH":"2026-03-06T05:42:09.315648","MEAN_MOTION":13.14502588,"ECCENTRICITY":0.00015386,"INCLINATION":87.8986,"RA_OF_ASC_NODE":310.2496,"ARG_OF_PERICENTER":67.1017,"MEAN_ANOMALY":293.0275,"EPHEMERIS_TYPE":0,"CLASSIFICATION_TYPE":"U","NORAD_CAT_ID":55816,"ELEMENT_SET_NO":999,"REV_AT_EPOCH":14589,"BSTAR":-0.00040486075,"MEAN_MOTION_DOT":-1.37e-6,"MEAN_MOTION_DDOT":0},{"OBJECT_NAME":"ONEWEB-0656","OBJECT_ID":"2023-029X","EPOCH":"2026-03-06T13:17:13.913664","MEAN_MOTION":13.20772016,"ECCENTRICITY":0.00014681,"INCLINATION":87.9177,"RA_OF_ASC_NODE":294.9211,"ARG_OF_PERICENTER":68.5751,"MEAN_ANOMALY":291.5539,"EPHEMERIS_TYPE":0,"CLASSIFICATION_TYPE":"U","NORAD_CAT_ID":55817,"ELEMENT_SET_NO":999,"REV_AT_EPOCH":14760,"BSTAR":-0.0001357671,"MEAN_MOTION_DOT":-4.2e-7,"MEAN_MOTION_DDOT":0},{"OBJECT_NAME":"ONEWEB-0657","OBJECT_ID":"2023-029Y","EPOCH":"2026-03-06T10:00:32.771808","MEAN_MOTION":13.1972614,"ECCENTRICITY":0.0002219,"INCLINATION":87.9234,"RA_OF_ASC_NODE":325.4514,"ARG_OF_PERICENTER":66.0327,"MEAN_ANOMALY":294.1038,"EPHEMERIS_TYPE":0,"CLASSIFICATION_TYPE":"U","NORAD_CAT_ID":55818,"ELEMENT_SET_NO":999,"REV_AT_EPOCH":14535,"BSTAR":0.00015011611,"MEAN_MOTION_DOT":7.3e-7,"MEAN_MOTION_DDOT":0},{"OBJECT_NAME":"ONEWEB-0658","OBJECT_ID":"2023-029Z","EPOCH":"2026-03-06T06:15:22.069440","MEAN_MOTION":13.19725634,"ECCENTRICITY":0.00019611,"INCLINATION":87.9245,"RA_OF_ASC_NODE":325.4491,"ARG_OF_PERICENTER":90.7497,"MEAN_ANOMALY":269.3861,"EPHEMERIS_TYPE":0,"CLASSIFICATION_TYPE":"U","NORAD_CAT_ID":55819,"ELEMENT_SET_NO":999,"REV_AT_EPOCH":14534,"BSTAR":9.5770223e-5,"MEAN_MOTION_DOT":5.1e-7,"MEAN_MOTION_DDOT":0},{"OBJECT_NAME":"ONEWEB-0660","OBJECT_ID":"2023-029AA","EPOCH":"2026-03-06T05:10:11.815392","MEAN_MOTION":13.14502958,"ECCENTRICITY":0.00014506,"INCLINATION":87.8995,"RA_OF_ASC_NODE":310.2407,"ARG_OF_PERICENTER":96.6584,"MEAN_ANOMALY":263.4711,"EPHEMERIS_TYPE":0,"CLASSIFICATION_TYPE":"U","NORAD_CAT_ID":55820,"ELEMENT_SET_NO":999,"REV_AT_EPOCH":14587,"BSTAR":0.00041289994,"MEAN_MOTION_DOT":1.66e-6,"MEAN_MOTION_DDOT":0},{"OBJECT_NAME":"ONEWEB-0661","OBJECT_ID":"2023-029AB","EPOCH":"2026-03-06T09:39:38.514240","MEAN_MOTION":13.14503288,"ECCENTRICITY":0.00013355,"INCLINATION":87.8984,"RA_OF_ASC_NODE":310.2597,"ARG_OF_PERICENTER":89.7678,"MEAN_ANOMALY":270.3605,"EPHEMERIS_TYPE":0,"CLASSIFICATION_TYPE":"U","NORAD_CAT_ID":55821,"ELEMENT_SET_NO":999,"REV_AT_EPOCH":14588,"BSTAR":-0.00034154641,"MEAN_MOTION_DOT":-1.14e-6,"MEAN_MOTION_DDOT":0},{"OBJECT_NAME":"ONEWEB-0662","OBJECT_ID":"2023-029AC","EPOCH":"2026-03-06T05:01:03.634176","MEAN_MOTION":13.14502443,"ECCENTRICITY":0.00014612,"INCLINATION":87.8982,"RA_OF_ASC_NODE":310.3062,"ARG_OF_PERICENTER":92.9076,"MEAN_ANOMALY":267.2221,"EPHEMERIS_TYPE":0,"CLASSIFICATION_TYPE":"U","NORAD_CAT_ID":55822,"ELEMENT_SET_NO":999,"REV_AT_EPOCH":14590,"BSTAR":0.0006587267,"MEAN_MOTION_DOT":2.57e-6,"MEAN_MOTION_DDOT":0},{"OBJECT_NAME":"ONEWEB-0663","OBJECT_ID":"2023-029AD","EPOCH":"2026-03-06T14:16:44.541408","MEAN_MOTION":13.20861772,"ECCENTRICITY":0.00016302,"INCLINATION":87.9185,"RA_OF_ASC_NODE":294.9853,"ARG_OF_PERICENTER":100.6945,"MEAN_ANOMALY":259.4372,"EPHEMERIS_TYPE":0,"CLASSIFICATION_TYPE":"U","NORAD_CAT_ID":55823,"ELEMENT_SET_NO":999,"REV_AT_EPOCH":14760,"BSTAR":0.00014988107,"MEAN_MOTION_DOT":7.4e-7,"MEAN_MOTION_DDOT":0},{"OBJECT_NAME":"ONEWEB-0664","OBJECT_ID":"2023-029AE","EPOCH":"2026-03-06T09:20:51.501408","MEAN_MOTION":13.20774851,"ECCENTRICITY":0.00010665,"INCLINATION":87.917,"RA_OF_ASC_NODE":295.0185,"ARG_OF_PERICENTER":90.2541,"MEAN_ANOMALY":269.8714,"EPHEMERIS_TYPE":0,"CLASSIFICATION_TYPE":"U","NORAD_CAT_ID":55824,"ELEMENT_SET_NO":999,"REV_AT_EPOCH":14757,"BSTAR":-6.3161694e-5,"MEAN_MOTION_DOT":-1.3e-7,"MEAN_MOTION_DDOT":0},{"OBJECT_NAME":"ONEWEB-0665","OBJECT_ID":"2023-029AF","EPOCH":"2026-03-06T15:03:54.687456","MEAN_MOTION":13.14501749,"ECCENTRICITY":0.00015398,"INCLINATION":87.8988,"RA_OF_ASC_NODE":310.1953,"ARG_OF_PERICENTER":92.5669,"MEAN_ANOMALY":267.5637,"EPHEMERIS_TYPE":0,"CLASSIFICATION_TYPE":"U","NORAD_CAT_ID":55825,"ELEMENT_SET_NO":999,"REV_AT_EPOCH":14593,"BSTAR":-0.00055741293,"MEAN_MOTION_DOT":-1.94e-6,"MEAN_MOTION_DDOT":0},{"OBJECT_NAME":"ONEWEB-0666","OBJECT_ID":"2023-029AG","EPOCH":"2026-03-06T14:39:03.139200","MEAN_MOTION":13.2077158,"ECCENTRICITY":0.00020727,"INCLINATION":87.9164,"RA_OF_ASC_NODE":294.9651,"ARG_OF_PERICENTER":66.0865,"MEAN_ANOMALY":294.0485,"EPHEMERIS_TYPE":0,"CLASSIFICATION_TYPE":"U","NORAD_CAT_ID":55826,"ELEMENT_SET_NO":999,"REV_AT_EPOCH":14761,"BSTAR":-0.0001970762,"MEAN_MOTION_DOT":-6.7e-7,"MEAN_MOTION_DDOT":0}]
